{"type":"FeatureCollection","name":"pilot_1wave_locked_30_groundsurface_xy","crs":{"type":"name","properties":{"name":"urn:ogc:def:crs:EPSG::25832"}},"features":[{"type":"Feature","properties":{"building_id":"DEBY_LOD2_4906966","selection_rank":1,"class":6},"geometry":{"type":"Polygon","coordinates":[[[690886.18,5336084.07],[690880.45,5336069.67],[690881.37,5336069.31],[690878.68,5336062.47],[690878.02,5336060.79],[690874.23,5336051.18],[690876.08,5336050.42],[690871.18,5336038.04],[690869.34,5336038.76],[690866.2,5336030.82],[690867.93,5336030.13],[690863.05,5336017.78],[690846.1,5336024.43],[690845.61,5336024.62],[690846.25,5336026.24],[690846.55,5336026.13],[690847.43,5336028.34],[690847.14,5336028.45],[690847.62,5336029.68],[690847.92,5336029.57],[690848.79,5336031.79],[690848.5,5336031.9],[690848.98,5336033.12],[690849.28,5336033.02],[690850.15,5336035.21],[690849.86,5336035.33],[690850.49,5336037.0],[690850.57,5336037.17],[690850.89,5336037.07],[690850.94,5336037.16],[690851.03,5336037.12],[690852.06,5336040.04],[690851.74,5336040.17],[690852.11,5336041.1],[690852.47,5336040.96],[690860.01,5336060.05],[690859.73,5336060.16],[690865.65,5336075.49],[690865.72,5336075.48],[690867.36,5336079.68],[690867.64,5336079.57],[690873.85,5336095.21],[690873.65,5336095.25],[690876.36,5336102.17],[690876.84,5336101.99],[690876.88,5336102.09],[690892.28,5336096.01],[690892.24,5336095.88],[690892.67,5336095.7],[690892.4,5336095.02],[690891.7,5336093.24],[690887.83,5336083.44],[690886.18,5336084.07]]]}},{"type":"Feature","properties":{"building_id":"DEBY_LOD2_4907178","selection_rank":2,"class":6},"geometry":{"type":"Polygon","coordinates":[[[690856.67,5336135.87],[690856.83,5336136.12],[690858.02,5336138.57],[690857.84,5336138.66],[690857.02,5336140.66],[690857.24,5336141.98],[690859.15,5336142.81],[690859.63,5336144.53],[690859.79,5336144.46],[690861.62,5336148.98],[690862.31,5336148.71],[690874.28,5336144.03],[690870.29,5336133.88],[690869.16,5336131.07],[690856.67,5336135.87]]]}},{"type":"Feature","properties":{"building_id":"DEBY_LOD2_4907183","selection_rank":3,"class":6},"geometry":{"type":"Polygon","coordinates":[[[690859.51,5336106.45],[690848.26,5336111.92],[690847.56,5336112.34],[690847.78,5336112.88],[690847.93,5336113.26],[690848.79,5336116.14],[690849.33,5336118.05],[690848.31,5336118.55],[690853.58,5336130.44],[690854.53,5336130.05],[690856.67,5336135.87],[690869.16,5336131.07],[690860.98,5336110.16],[690859.87,5336107.35],[690859.51,5336106.45]]]}},{"type":"Feature","properties":{"building_id":"DEBY_LOD2_4907184","selection_rank":4,"class":6},"geometry":{"type":"Polygon","coordinates":[[[690859.532,5336105.9],[690858.678,5336106.237],[690855.391,5336097.911],[690855.605,5336097.829],[690853.902,5336093.509],[690854.123,5336093.488],[690852.237,5336088.704],[690850.645,5336084.664],[690850.843,5336084.59],[690850.96,5336084.547],[690850.423,5336083.195],[690850.284,5336083.236],[690850.214,5336083.257],[690849.61,5336083.439],[690848.155,5336083.877],[690848.179,5336084.035],[690848.187,5336084.088],[690845.395,5336085.37],[690845.336,5336085.22],[690845.295,5336085.116],[690844.107,5336085.569],[690841.415,5336086.596],[690841.486,5336086.823],[690841.513,5336086.91],[690838.29,5336088.153],[690837.885,5336088.31],[690837.748,5336087.994],[690836.639,5336088.451],[690836.748,5336088.726],[690838.844,5336094.283],[690840.839,5336099.575],[690842.296,5336099.007],[690842.495,5336098.929],[690842.683,5336099.352],[690842.768,5336099.545],[690848.261,5336111.925],[690853.868,5336109.196],[690859.511,5336106.449],[690859.713,5336106.377],[690859.532,5336105.9]]]}},{"type":"Feature","properties":{"building_id":"DEBY_LOD2_4907185","selection_rank":5,"class":6},"geometry":{"type":"Polygon","coordinates":[[[690838.794,5336094.15],[690836.748,5336088.726],[690826.523,5336092.691],[690823.749,5336093.763],[690825.786,5336099.017],[690825.842,5336099.169],[690825.895,5336099.312],[690827.932,5336104.576],[690830.707,5336103.493],[690840.839,5336099.575],[690838.794,5336094.15]]]}},{"type":"Feature","properties":{"building_id":"DEBY_LOD2_4907186","selection_rank":6,"class":6},"geometry":{"type":"Polygon","coordinates":[[[690811.903,5336105.169],[690809.546,5336099.254],[690809.363,5336099.317],[690806.498,5336100.436],[690800.961,5336102.602],[690797.679,5336103.875],[690797.374,5336103.993],[690799.661,5336109.969],[690801.941,5336115.932],[690813.992,5336111.198],[690814.266,5336111.098],[690811.903,5336105.169]]]}},{"type":"Feature","properties":{"building_id":"DEBY_LOD2_4907188","selection_rank":7,"class":6},"geometry":{"type":"Polygon","coordinates":[[[690784.89,5336108.83],[690789.17,5336120.41],[690801.8,5336115.59],[690797.37,5336103.99],[690794.47,5336105.13],[690794.5,5336105.2],[690788.02,5336107.71],[690787.97,5336107.65],[690784.89,5336108.83]]]}},{"type":"Feature","properties":{"building_id":"DEBY_LOD2_4907195","selection_rank":8,"class":6},"geometry":{"type":"Polygon","coordinates":[[[690799.9,5336074.7],[690799.35,5336074.92],[690790.45,5336078.39],[690788.23,5336079.24],[690787.86,5336079.37],[690786.63,5336076.38],[690786.44,5336076.45],[690788.31,5336080.93],[690792.81,5336091.97],[690793.23,5336091.81],[690795.44,5336090.95],[690805.03,5336087.27],[690799.9,5336074.7]]]}},{"type":"Feature","properties":{"building_id":"DEBY_LOD2_4907196","selection_rank":9,"class":6},"geometry":{"type":"Polygon","coordinates":[[[690835.39,5336047.49],[690824.7,5336051.53],[690823.95,5336051.82],[690825.17,5336055.03],[690824.63,5336055.3],[690825.73,5336057.92],[690826.29,5336057.74],[690830.23,5336067.78],[690828.83,5336068.39],[690828.25,5336067.01],[690824.06,5336068.7],[690821.06,5336069.9],[690824.86,5336079.52],[690827.84,5336078.36],[690845.77,5336071.45],[690835.39,5336047.49]]]}},{"type":"Feature","properties":{"building_id":"DEBY_LOD2_4907198","selection_rank":10,"class":6},"geometry":{"type":"Polygon","coordinates":[[[690821.06,5336069.9],[690818.93,5336070.73],[690818.01,5336068.63],[690817.07,5336069.01],[690811.6,5336071.22],[690809.36,5336072.11],[690808.42,5336072.48],[690808.66,5336073.08],[690806.95,5336073.75],[690806.73,5336074.27],[690805.45,5336073.26],[690804.58,5336070.93],[690805.59,5336070.53],[690805.77,5336070.12],[690802.1,5336060.48],[690794.98,5336063.25],[690797.19,5336069.08],[690797.61,5336070.19],[690798.34,5336072.19],[690799.35,5336074.92],[690799.9,5336074.7],[690805.03,5336087.27],[690805.06,5336087.31],[690809.21,5336085.69],[690809.2,5336085.61],[690813.54,5336083.94],[690813.58,5336084.02],[690814.07,5336083.68],[690816.31,5336082.8],[690824.86,5336079.52],[690821.06,5336069.9]]]}},{"type":"Feature","properties":{"building_id":"DEBY_LOD2_4907201","selection_rank":11,"class":6},"geometry":{"type":"Polygon","coordinates":[[[690820.58,5336039.94],[690820.23,5336040.07],[690820.49,5336040.73],[690821.28,5336042.77],[690821.65,5336043.71],[690816.02,5336045.89],[690819.07,5336053.69],[690823.95,5336051.82],[690824.7,5336051.53],[690835.39,5336047.49],[690831.93,5336038.82],[690831.09,5336036.7],[690830.82,5336036.01],[690820.58,5336039.94]]]}},{"type":"Feature","properties":{"building_id":"DEBY_LOD2_4907202","selection_rank":12,"class":6},"geometry":{"type":"Polygon","coordinates":[[[690806.55,5336031.58],[690811.1,5336029.83],[690808.54,5336023.06],[690804.23,5336024.72],[690804.0,5336024.82],[690798.06,5336027.13],[690797.85,5336026.56],[690788.39,5336030.05],[690791.1,5336036.97],[690791.3,5336037.48],[690794.76,5336036.14],[690803.05,5336032.93],[690806.55,5336031.58]]]}},{"type":"Feature","properties":{"building_id":"DEBY_LOD2_4907204","selection_rank":13,"class":6},"geometry":{"type":"Polygon","coordinates":[[[690818.58,5336019.21],[690817.72,5336019.54],[690813.39,5336021.19],[690816.53,5336029.49],[690815.71,5336029.92],[690817.18,5336033.74],[690817.99,5336033.46],[690819.41,5336037.04],[690820.58,5336039.94],[690830.82,5336036.01],[690831.05,5336035.93],[690829.87,5336033.04],[690829.11,5336031.19],[690828.76,5336031.32],[690827.57,5336028.23],[690827.92,5336028.09],[690826.73,5336025.12],[690826.39,5336025.26],[690825.17,5336022.33],[690825.56,5336022.11],[690823.63,5336017.25],[690818.58,5336019.21]]]}},{"type":"Feature","properties":{"building_id":"DEBY_LOD2_4907205","selection_rank":14,"class":6},"geometry":{"type":"Polygon","coordinates":[[[690804.212,5336024.68],[690799.961,5336013.143],[690798.726,5336009.794],[690797.634,5336010.237],[690794.955,5336011.324],[690792.583,5336012.287],[690793.819,5336015.635],[690795.136,5336019.202],[690795.951,5336021.416],[690797.851,5336026.555],[690798.059,5336027.123],[690801.182,5336025.91],[690804.004,5336024.813],[690804.228,5336024.722],[690804.212,5336024.68]]]}},{"type":"Feature","properties":{"building_id":"DEBY_LOD2_4907206","selection_rank":15,"class":6},"geometry":{"type":"Polygon","coordinates":[[[690823.583,5336017.124],[690822.401,5336013.874],[690822.574,5336013.801],[690821.114,5336009.922],[690820.901,5336010.004],[690819.959,5336007.475],[690820.123,5336007.372],[690819.36,5336005.37],[690818.371,5336002.78],[690818.035,5336001.916],[690812.271,5336004.232],[690812.251,5336004.24],[690806.425,5336006.623],[690806.752,5336007.487],[690807.715,5336009.976],[690812.162,5336021.659],[690813.391,5336021.187],[690816.715,5336019.918],[690817.717,5336019.535],[690817.975,5336019.437],[690818.581,5336019.208],[690823.63,5336017.254],[690823.583,5336017.124]]]}},{"type":"Feature","properties":{"building_id":"DEBY_LOD2_4908168","selection_rank":16,"class":6},"geometry":{"type":"Polygon","coordinates":[[[690840.62,5336108.87],[690839.77,5336109.21],[690836.72,5336110.32],[690836.83,5336110.53],[690839.11,5336116.12],[690843.77,5336114.81],[690840.62,5336108.87]]]}},{"type":"Feature","properties":{"building_id":"DEBY_LOD2_4908178","selection_rank":17,"class":6},"geometry":{"type":"Polygon","coordinates":[[[690803.05,5336032.93],[690794.76,5336036.14],[690799.42,5336048.06],[690807.65,5336044.9],[690803.05,5336032.93]]]}},{"type":"Feature","properties":{"building_id":"DEBY_LOD2_60098","selection_rank":18,"class":6},"geometry":{"type":"Polygon","coordinates":[[[690827.932,5336104.576],[690826.08,5336099.79],[690825.895,5336099.312],[690825.786,5336099.017],[690823.749,5336093.763],[690823.707,5336093.78],[690809.546,5336099.254],[690811.938,5336105.256],[690814.266,5336111.098],[690819.661,5336109.007],[690819.968,5336109.794],[690820.116,5336110.176],[690824.09,5336108.639],[690823.941,5336108.257],[690823.444,5336106.973],[690828.159,5336105.155],[690827.932,5336104.576]]]}},{"type":"Feature","properties":{"building_id":"DEBY_LOD2_4907207","selection_rank":19,"class":6},"geometry":{"type":"Polygon","coordinates":[[[690815.22,5335993.79],[690809.56,5335996.04],[690807.62,5335996.81],[690806.35,5335993.59],[690804.52,5335988.33],[690802.73,5335983.62],[690788.83,5335988.9],[690790.55,5335993.65],[690790.68,5335994.03],[690791.85,5335997.37],[690792.6,5335999.49],[690799.54,5335996.86],[690803.69,5336007.76],[690806.42,5336006.62],[690812.25,5336004.24],[690818.04,5336001.91],[690815.22,5335993.79]]]}},{"type":"Feature","properties":{"building_id":"DEBY_LOD2_4907165","selection_rank":20,"class":6},"geometry":{"type":"Polygon","coordinates":[[[690811.43,5336141.65],[690811.1,5336140.75],[690811.04,5336140.53],[690809.86,5336137.11],[690786.19,5336146.59],[690787.97,5336151.04],[690790.06,5336156.26],[690810.69,5336147.97],[690813.1,5336146.96],[690811.43,5336141.65]]]}},{"type":"Feature","properties":{"building_id":"DEBY_LOD2_4907177","selection_rank":21,"class":6},"geometry":{"type":"Polygon","coordinates":[[[690860.641,5336146.564],[690859.79,5336144.454],[690859.627,5336144.528],[690855.041,5336146.427],[690854.897,5336146.486],[690854.168,5336144.657],[690851.456,5336145.723],[690850.963,5336145.941],[690846.278,5336148.015],[690844.491,5336148.807],[690846.858,5336154.794],[690848.675,5336154.079],[690853.439,5336152.202],[690855.232,5336151.494],[690856.8,5336150.876],[690861.615,5336148.98],[690860.641,5336146.564]]]}},{"type":"Feature","properties":{"building_id":"DEBY_LOD2_4907179","selection_rank":22,"class":6},"geometry":{"type":"Polygon","coordinates":[[[690862.31,5336148.71],[690863.77,5336152.35],[690860.92,5336153.49],[690862.24,5336156.8],[690864.77,5336155.78],[690866.25,5336159.47],[690867.05,5336159.18],[690869.01,5336158.38],[690872.84,5336157.01],[690878.56,5336154.86],[690874.28,5336144.03],[690862.31,5336148.71]]]}},{"type":"Feature","properties":{"building_id":"DEBY_LOD2_42364665","selection_rank":23,"class":6},"geometry":{"type":"Polygon","coordinates":[[[690878.019,5336060.791],[690878.674,5336062.468],[690880.839,5336061.612],[690905.793,5336058.743],[690905.11,5336057.014],[690880.407,5336059.854],[690878.019,5336060.791]]]}},{"type":"Feature","properties":{"building_id":"DEBY_LOD2_4906965","selection_rank":24,"class":6},"geometry":{"type":"Polygon","coordinates":[[[690919.71,5335939.15],[690919.83,5335939.44],[690917.23,5335940.43],[690917.11,5335940.14],[690915.14,5335940.89],[690915.26,5335941.18],[690912.65,5335942.17],[690912.54,5335941.89],[690910.58,5335942.62],[690910.69,5335942.92],[690908.09,5335943.92],[690907.97,5335943.62],[690906.93,5335943.99],[690906.82,5335943.79],[690906.01,5335944.1],[690901.56,5335945.79],[690901.26,5335945.61],[690898.07,5335946.83],[690897.85,5335947.2],[690896.72,5335947.63],[690896.89,5335948.09],[690895.39,5335948.68],[690895.49,5335948.98],[690893.12,5335949.88],[690893.0,5335949.58],[690891.5,5335950.15],[690891.61,5335950.46],[690889.23,5335951.36],[690889.12,5335951.06],[690887.62,5335951.63],[690887.73,5335951.94],[690885.36,5335952.84],[690885.24,5335952.54],[690883.74,5335953.12],[690883.83,5335953.41],[690881.49,5335954.31],[690881.36,5335954.01],[690879.85,5335954.59],[690879.96,5335954.89],[690877.6,5335955.79],[690877.48,5335955.49],[690875.97,5335956.07],[690876.08,5335956.37],[690873.73,5335957.27],[690873.6,5335956.97],[690872.08,5335957.55],[690872.2,5335957.84],[690869.83,5335958.75],[690869.72,5335958.45],[690868.21,5335959.03],[690868.32,5335959.33],[690865.95,5335960.23],[690865.84,5335959.92],[690864.33,5335960.51],[690864.45,5335960.8],[690862.07,5335961.71],[690861.95,5335961.4],[690860.45,5335961.98],[690860.57,5335962.27],[690858.19,5335963.18],[690858.07,5335962.88],[690856.57,5335963.46],[690856.68,5335963.75],[690854.32,5335964.65],[690854.19,5335964.36],[690852.69,5335964.94],[690852.81,5335965.23],[690850.44,5335966.14],[690850.32,5335965.83],[690848.81,5335966.41],[690848.93,5335966.7],[690846.55,5335967.61],[690846.44,5335967.32],[690844.93,5335967.89],[690845.06,5335968.19],[690842.69,5335969.1],[690842.57,5335968.79],[690840.94,5335969.42],[690840.76,5335968.95],[690837.78,5335970.08],[690837.88,5335970.37],[690835.29,5335971.36],[690835.18,5335971.08],[690831.42,5335972.51],[690831.52,5335972.8],[690828.92,5335973.78],[690828.81,5335973.5],[690825.81,5335974.64],[690826.99,5335977.62],[690827.29,5335977.53],[690828.31,5335980.1],[690828.04,5335980.23],[690829.53,5335983.94],[690829.78,5335983.84],[690830.81,5335986.42],[690830.55,5335986.55],[690831.72,5335989.53],[690832.2,5335989.34],[690832.5,5335990.11],[690832.79,5335990.01],[690833.67,5335992.3],[690833.41,5335992.43],[690834.04,5335994.02],[690834.22,5335993.95],[690835.14,5335996.26],[690834.96,5335996.33],[690835.58,5335997.92],[690835.78,5335997.85],[690836.69,5336000.16],[690836.5,5336000.23],[690837.12,5336001.83],[690837.34,5336001.77],[690838.24,5336004.07],[690838.05,5336004.16],[690838.68,5336005.74],[690838.87,5336005.67],[690839.79,5336007.98],[690839.59,5336008.07],[690840.22,5336009.66],[690840.52,5336009.54],[690841.43,5336011.84],[690841.14,5336011.95],[690841.77,5336013.56],[690842.07,5336013.43],[690842.98,5336015.74],[690842.69,5336015.88],[690843.33,5336017.46],[690843.62,5336017.34],[690844.54,5336019.65],[690844.24,5336019.78],[690844.88,5336021.37],[690845.17,5336021.26],[690846.1,5336023.55],[690845.8,5336023.68],[690846.1,5336024.43],[690863.05,5336017.78],[690860.12,5336010.35],[690860.67,5336010.14],[690858.81,5336005.42],[690858.25,5336005.63],[690852.39,5335990.74],[690852.97,5335990.36],[690853.46,5335989.87],[690853.83,5335989.28],[690854.04,5335988.77],[690854.17,5335988.22],[690854.2,5335987.66],[690854.15,5335987.11],[690853.56,5335985.55],[690888.45,5335972.22],[690890.45,5335971.46],[690903.86,5335966.34],[690913.14,5335962.79],[690913.21,5335962.97],[690928.63,5335957.03],[690926.09,5335950.21],[690921.81,5335938.71],[690921.69,5335938.4],[690919.71,5335939.15]]]}},{"type":"Feature","properties":{"building_id":"DEBY_LOD2_42364667","selection_rank":25,"class":6},"geometry":{"type":"Polygon","coordinates":[[[690891.702,5336093.243],[690892.403,5336095.022],[690914.519,5336094.014],[690917.651,5336093.025],[690916.986,5336091.347],[690914.82,5336092.194],[690891.702,5336093.243]]]}},{"type":"Feature","properties":{"building_id":"DEBY_LOD2_4907176","selection_rank":26,"class":6},"geometry":{"type":"Polygon","coordinates":[[[690846.86,5336154.79],[690842.18,5336156.6],[690841.57,5336156.84],[690837.11,5336158.58],[690835.49,5336159.21],[690838.47,5336166.24],[690845.02,5336182.0],[690864.2,5336174.44],[690859.48,5336162.27],[690858.01,5336158.55],[690855.23,5336151.5],[690846.86,5336154.79]]]}},{"type":"Feature","properties":{"building_id":"DEBY_LOD2_4907180","selection_rank":27,"class":6},"geometry":{"type":"Polygon","coordinates":[[[690883.51,5336167.29],[690883.35,5336166.84],[690878.56,5336154.86],[690872.84,5336157.01],[690869.01,5336158.38],[690867.05,5336159.18],[690866.25,5336159.47],[690859.48,5336162.27],[690864.2,5336174.44],[690866.82,5336173.39],[690871.92,5336171.33],[690871.97,5336171.44],[690872.36,5336172.43],[690873.12,5336174.33],[690874.6,5336178.04],[690875.49,5336180.26],[690881.2,5336178.06],[690886.9,5336175.86],[690883.98,5336168.46],[690883.51,5336167.29]]]}},{"type":"Feature","properties":{"building_id":"DEBY_LOD2_4906967","selection_rank":28,"class":6},"geometry":{"type":"Polygon","coordinates":[[[690942.09,5335996.7],[690936.09,5335980.91],[690929.59,5335963.82],[690912.86,5335970.22],[690912.97,5335970.5],[690891.86,5335978.6],[690890.01,5335979.3],[690870.03,5335986.97],[690876.47,5336003.77],[690878.22,5336008.32],[690881.67,5336007.0],[690888.34,5336024.55],[690895.34,5336021.85],[690895.22,5336021.54],[690899.71,5336019.81],[690899.82,5336020.13],[690906.56,5336017.54],[690906.43,5336017.2],[690910.9,5336015.5],[690911.03,5336015.83],[690917.75,5336013.25],[690917.47,5336012.53],[690918.99,5336011.96],[690919.27,5336012.68],[690928.15,5336009.32],[690927.61,5336007.9],[690932.53,5336006.05],[690937.45,5336004.19],[690944.53,5336001.51],[690942.63,5335996.5],[690942.09,5335996.7]]]}},{"type":"Feature","properties":{"building_id":"DEBY_LOD2_4908023","selection_rank":29,"class":6},"geometry":{"type":"Polygon","coordinates":[[[690909.56,5336108.243],[690906.287,5336109.516],[690908.258,5336114.56],[690908.526,5336115.248],[690908.537,5336115.244],[690911.891,5336113.938],[690909.56,5336108.243]]]}},{"type":"Feature","properties":{"building_id":"DEBY_LOD2_4908024","selection_rank":30,"class":6},"geometry":{"type":"Polygon","coordinates":[[[690908.46,5336099.732],[690909.754,5336103.016],[690915.476,5336100.787],[690914.173,5336097.503],[690908.46,5336099.732]]]}}]}
