{"type":"FeatureCollection","name":"flat_seed_roofprints_g0500","crs":{"type":"name","properties":{"name":"urn:ogc:def:crs:EPSG::25832"}},"features":[{"type":"Feature","properties":{"building_id":"DEBY_LOD2_4907199","source":"flat_seed_point_occupied_cell_union","grid_m":0.5,"point_count":448},"geometry":{"type":"Polygon","coordinates":[[[690791.0,5336050.5],[690791.0,5336051.0],[690790.5,5336051.0],[690790.0,5336051.0],[690790.0,5336051.5],[690790.5,5336051.5],[690790.5,5336052.0],[690790.5,5336052.5],[690790.5,5336053.0],[690791.0,5336053.0],[690791.0,5336053.5],[690791.0,5336054.0],[690791.0,5336054.5],[690791.5,5336054.5],[690791.5,5336055.0],[690791.5,5336055.5],[690792.0,5336055.5],[690792.0,5336056.0],[690792.0,5336056.5],[690792.0,5336057.0],[690792.5,5336057.0],[690792.5,5336057.5],[690792.5,5336058.0],[690792.5,5336058.5],[690793.0,5336058.5],[690793.0,5336059.0],[690793.0,5336059.5],[690793.5,5336059.5],[690793.5,5336060.0],[690793.5,5336060.5],[690793.5,5336061.0],[690794.0,5336061.0],[690794.0,5336061.5],[690794.0,5336062.0],[690794.5,5336062.0],[690794.5,5336062.5],[690794.5,5336063.0],[690794.5,5336063.5],[690795.0,5336063.5],[690795.5,5336063.5],[690796.0,5336063.5],[690796.0,5336063.0],[690796.5,5336063.0],[690797.0,5336063.0],[690797.0,5336062.5],[690797.5,5336062.5],[690798.0,5336062.5],[690798.5,5336062.5],[690798.5,5336062.0],[690799.0,5336062.0],[690799.5,5336062.0],[690799.5,5336061.5],[690800.0,5336061.5],[690800.5,5336061.5],[690801.0,5336061.5],[690801.0,5336061.0],[690801.5,5336061.0],[690802.0,5336061.0],[690802.5,5336061.0],[690802.5,5336060.5],[690802.5,5336060.0],[690802.0,5336060.0],[690802.0,5336059.5],[690802.0,5336059.0],[690802.0,5336058.5],[690801.5,5336058.5],[690801.5,5336058.0],[690801.5,5336057.5],[690801.0,5336057.5],[690801.0,5336057.0],[690801.0,5336056.5],[690801.0,5336056.0],[690800.5,5336056.0],[690800.5,5336055.5],[690800.5,5336055.0],[690800.5,5336054.5],[690800.0,5336054.5],[690800.0,5336054.0],[690800.0,5336053.5],[690799.5,5336053.5],[690799.5,5336053.0],[690799.5,5336052.5],[690799.5,5336052.0],[690799.0,5336052.0],[690799.0,5336051.5],[690799.0,5336051.0],[690799.0,5336050.5],[690798.5,5336050.5],[690798.5,5336050.0],[690798.5,5336049.5],[690798.0,5336049.5],[690798.0,5336049.0],[690798.0,5336048.5],[690798.0,5336048.0],[690797.5,5336048.0],[690797.0,5336048.0],[690797.0,5336048.5],[690796.5,5336048.5],[690796.0,5336048.5],[690796.0,5336049.0],[690795.5,5336049.0],[690795.0,5336049.0],[690794.5,5336049.0],[690794.5,5336049.5],[690794.0,5336049.5],[690793.5,5336049.5],[690793.5,5336050.0],[690793.0,5336050.0],[690792.5,5336050.0],[690792.0,5336050.0],[690792.0,5336050.5],[690791.5,5336050.5],[690791.0,5336050.5]]]}},{"type":"Feature","properties":{"building_id":"DEBY_LOD2_8568391","source":"flat_seed_point_occupied_cell_union","grid_m":0.5,"point_count":265},"geometry":{"type":"Polygon","coordinates":[[[690786.0,5336024.5],[690786.0,5336025.0],[690786.0,5336025.5],[690786.5,5336025.5],[690786.5,5336026.0],[690786.5,5336026.5],[690786.5,5336027.0],[690787.0,5336027.0],[690787.0,5336027.5],[690787.0,5336028.0],[690787.5,5336028.0],[690787.5,5336028.5],[690787.5,5336029.0],[690787.5,5336029.5],[690788.0,5336029.5],[690788.0,5336030.0],[690788.0,5336030.5],[690788.5,5336030.5],[690789.0,5336030.5],[690789.0,5336030.0],[690789.5,5336030.0],[690790.0,5336030.0],[690790.0,5336029.5],[690790.5,5336029.5],[690791.0,5336029.5],[690791.5,5336029.5],[690791.5,5336029.0],[690792.0,5336029.0],[690792.5,5336029.0],[690793.0,5336029.0],[690793.0,5336028.5],[690793.5,5336028.5],[690794.0,5336028.5],[690794.0,5336028.0],[690794.5,5336028.0],[690795.0,5336028.0],[690795.5,5336028.0],[690795.5,5336027.5],[690796.0,5336027.5],[690796.5,5336027.5],[690797.0,5336027.5],[690797.0,5336027.0],[690797.5,5336027.0],[690798.0,5336027.0],[690798.0,5336026.5],[690798.0,5336026.0],[690798.0,5336025.5],[690797.5,5336025.5],[690797.5,5336025.0],[690797.5,5336024.5],[690797.5,5336024.0],[690797.0,5336024.0],[690797.0,5336023.5],[690797.0,5336023.0],[690797.0,5336022.5],[690796.5,5336022.5],[690796.5,5336022.0],[690796.5,5336021.5],[690796.0,5336021.5],[690796.0,5336021.0],[690795.5,5336021.0],[690795.5,5336021.5],[690795.0,5336021.5],[690794.5,5336021.5],[690794.0,5336021.5],[690794.0,5336022.0],[690793.5,5336022.0],[690793.0,5336022.0],[690793.0,5336022.5],[690792.5,5336022.5],[690792.0,5336022.5],[690791.5,5336022.5],[690791.5,5336023.0],[690791.0,5336023.0],[690790.5,5336023.0],[690790.0,5336023.0],[690790.0,5336023.5],[690789.5,5336023.5],[690789.0,5336023.5],[690788.5,5336023.5],[690788.5,5336024.0],[690788.0,5336024.0],[690787.5,5336024.0],[690787.5,5336024.5],[690787.0,5336024.5],[690786.5,5336024.5],[690786.0,5336024.5]]]}},{"type":"Feature","properties":{"building_id":"DEBY_LOD2_8568392","source":"flat_seed_point_occupied_cell_union","grid_m":0.5,"point_count":37},"geometry":{"type":"Polygon","coordinates":[[[690793.5,5336019.5],[690793.0,5336019.5],[690792.5,5336019.5],[690792.5,5336020.0],[690792.5,5336020.5],[690792.5,5336021.0],[690793.0,5336021.0],[690793.0,5336021.5],[690793.0,5336022.0],[690793.5,5336022.0],[690793.5,5336022.5],[690794.0,5336022.5],[690794.5,5336022.5],[690794.5,5336022.0],[690795.0,5336022.0],[690795.5,5336022.0],[690796.0,5336022.0],[690796.0,5336021.5],[690796.0,5336021.0],[690796.0,5336020.5],[690796.0,5336020.0],[690795.5,5336020.0],[690795.5,5336019.5],[690795.5,5336019.0],[690795.0,5336019.0],[690794.5,5336019.0],[690794.0,5336019.0],[690794.0,5336019.5],[690793.5,5336019.5]]]}}]}
