{"type":"FeatureCollection","name":"flat_seed_roofprints_g0125","crs":{"type":"name","properties":{"name":"urn:ogc:def:crs:EPSG::25832"}},"features":[{"type":"Feature","properties":{"building_id":"DEBY_LOD2_4907199","source":"flat_seed_point_occupied_cell_union","grid_m":0.125,"point_count":6505},"geometry":{"type":"Polygon","coordinates":[[[690790.75,5336051.125],[690790.625,5336051.125],[690790.5,5336051.125],[690790.375,5336051.125],[690790.375,5336051.25],[690790.375,5336051.375],[690790.375,5336051.5],[690790.5,5336051.5],[690790.5,5336051.625],[690790.5,5336051.75],[690790.5,5336051.875],[690790.625,5336051.875],[690790.625,5336052.0],[690790.625,5336052.125],[690790.75,5336052.125],[690790.75,5336052.25],[690790.75,5336052.375],[690790.75,5336052.5],[690790.875,5336052.5],[690790.875,5336052.625],[690790.875,5336052.75],[690790.875,5336052.875],[690791.0,5336052.875],[690791.0,5336053.0],[690791.0,5336053.125],[690791.125,5336053.125],[690791.125,5336053.25],[690791.125,5336053.375],[690791.125,5336053.5],[690791.25,5336053.5],[690791.25,5336053.625],[690791.25,5336053.75],[690791.25,5336053.875],[690791.375,5336053.875],[690791.375,5336054.0],[690791.375,5336054.125],[690791.5,5336054.125],[690791.5,5336054.25],[690791.5,5336054.375],[690791.5,5336054.5],[690791.625,5336054.5],[690791.625,5336054.625],[690791.625,5336054.75],[690791.75,5336054.75],[690791.75,5336054.875],[690791.75,5336055.0],[690791.75,5336055.125],[690791.875,5336055.125],[690791.875,5336055.25],[690791.875,5336055.375],[690791.875,5336055.5],[690792.0,5336055.5],[690792.0,5336055.625],[690792.0,5336055.75],[690792.125,5336055.75],[690792.125,5336055.875],[690792.125,5336056.0],[690792.125,5336056.125],[690792.25,5336056.125],[690792.25,5336056.25],[690792.25,5336056.375],[690792.25,5336056.5],[690792.375,5336056.5],[690792.375,5336056.625],[690792.375,5336056.75],[690792.5,5336056.75],[690792.5,5336056.875],[690792.5,5336057.0],[690792.5,5336057.125],[690792.625,5336057.125],[690792.625,5336057.25],[690792.625,5336057.375],[690792.625,5336057.5],[690792.75,5336057.5],[690792.75,5336057.625],[690792.75,5336057.75],[690792.875,5336057.75],[690792.875,5336057.875],[690792.875,5336058.0],[690792.875,5336058.125],[690793.0,5336058.125],[690793.0,5336058.25],[690793.0,5336058.375],[690793.125,5336058.375],[690793.125,5336058.5],[690793.125,5336058.625],[690793.125,5336058.75],[690793.25,5336058.75],[690793.25,5336058.875],[690793.25,5336059.0],[690793.25,5336059.125],[690793.375,5336059.125],[690793.375,5336059.25],[690793.375,5336059.375],[690793.5,5336059.375],[690793.5,5336059.5],[690793.5,5336059.625],[690793.5,5336059.75],[690793.625,5336059.75],[690793.625,5336059.875],[690793.625,5336060.0],[690793.625,5336060.125],[690793.75,5336060.125],[690793.75,5336060.25],[690793.75,5336060.375],[690793.875,5336060.375],[690793.875,5336060.5],[690793.875,5336060.625],[690793.875,5336060.75],[690794.0,5336060.75],[690794.0,5336060.875],[690794.0,5336061.0],[690794.125,5336061.0],[690794.125,5336061.125],[690794.125,5336061.25],[690794.125,5336061.375],[690794.25,5336061.375],[690794.25,5336061.5],[690794.25,5336061.625],[690794.25,5336061.75],[690794.375,5336061.75],[690794.375,5336061.875],[690794.375,5336062.0],[690794.5,5336062.0],[690794.5,5336062.125],[690794.5,5336062.25],[690794.5,5336062.375],[690794.625,5336062.375],[690794.625,5336062.5],[690794.625,5336062.625],[690794.625,5336062.75],[690794.75,5336062.75],[690794.75,5336062.875],[690794.75,5336063.0],[690794.875,5336063.0],[690794.875,5336063.125],[690794.875,5336063.25],[690795.0,5336063.25],[690795.125,5336063.25],[690795.25,5336063.25],[690795.375,5336063.25],[690795.375,5336063.125],[690795.5,5336063.125],[690795.625,5336063.125],[690795.625,5336063.0],[690795.75,5336063.0],[690795.875,5336063.0],[690796.0,5336063.0],[690796.0,5336062.875],[690796.125,5336062.875],[690796.25,5336062.875],[690796.375,5336062.875],[690796.375,5336062.75],[690796.5,5336062.75],[690796.625,5336062.75],[690796.625,5336062.625],[690796.75,5336062.625],[690796.875,5336062.625],[690797.0,5336062.625],[690797.0,5336062.5],[690797.125,5336062.5],[690797.25,5336062.5],[690797.25,5336062.375],[690797.375,5336062.375],[690797.5,5336062.375],[690797.625,5336062.375],[690797.625,5336062.25],[690797.75,5336062.25],[690797.875,5336062.25],[690797.875,5336062.125],[690798.0,5336062.125],[690798.125,5336062.125],[690798.25,5336062.125],[690798.25,5336062.0],[690798.375,5336062.0],[690798.5,5336062.0],[690798.625,5336062.0],[690798.625,5336061.875],[690798.75,5336061.875],[690798.875,5336061.875],[690798.875,5336061.75],[690799.0,5336061.75],[690799.125,5336061.75],[690799.25,5336061.75],[690799.25,5336061.625],[690799.375,5336061.625],[690799.5,5336061.625],[690799.5,5336061.5],[690799.625,5336061.5],[690799.75,5336061.5],[690799.875,5336061.5],[690799.875,5336061.375],[690800.0,5336061.375],[690800.125,5336061.375],[690800.125,5336061.25],[690800.25,5336061.25],[690800.375,5336061.25],[690800.5,5336061.25],[690800.5,5336061.125],[690800.625,5336061.125],[690800.75,5336061.125],[690800.875,5336061.125],[690800.875,5336061.0],[690801.0,5336061.0],[690801.125,5336061.0],[690801.125,5336060.875],[690801.25,5336060.875],[690801.375,5336060.875],[690801.5,5336060.875],[690801.5,5336060.75],[690801.625,5336060.75],[690801.75,5336060.75],[690801.75,5336060.625],[690801.875,5336060.625],[690802.0,5336060.625],[690802.125,5336060.625],[690802.125,5336060.5],[690802.125,5336060.375],[690802.125,5336060.25],[690802.125,5336060.125],[690802.0,5336060.125],[690802.0,5336060.0],[690802.0,5336059.875],[690801.875,5336059.875],[690801.875,5336059.75],[690801.875,5336059.625],[690801.875,5336059.5],[690801.75,5336059.5],[690801.75,5336059.375],[690801.75,5336059.25],[690801.75,5336059.125],[690801.625,5336059.125],[690801.625,5336059.0],[690801.625,5336058.875],[690801.5,5336058.875],[690801.5,5336058.75],[690801.5,5336058.625],[690801.5,5336058.5],[690801.375,5336058.5],[690801.375,5336058.375],[690801.375,5336058.25],[690801.375,5336058.125],[690801.25,5336058.125],[690801.25,5336058.0],[690801.25,5336057.875],[690801.125,5336057.875],[690801.125,5336057.75],[690801.125,5336057.625],[690801.125,5336057.5],[690801.0,5336057.5],[690801.0,5336057.375],[690801.0,5336057.25],[690801.0,5336057.125],[690800.875,5336057.125],[690800.875,5336057.0],[690800.875,5336056.875],[690800.75,5336056.875],[690800.75,5336056.75],[690800.75,5336056.625],[690800.75,5336056.5],[690800.625,5336056.5],[690800.625,5336056.375],[690800.625,5336056.25],[690800.5,5336056.25],[690800.5,5336056.125],[690800.5,5336056.0],[690800.5,5336055.875],[690800.375,5336055.875],[690800.375,5336055.75],[690800.375,5336055.625],[690800.375,5336055.5],[690800.25,5336055.5],[690800.25,5336055.375],[690800.25,5336055.25],[690800.125,5336055.25],[690800.125,5336055.125],[690800.125,5336055.0],[690800.125,5336054.875],[690800.0,5336054.875],[690800.0,5336054.75],[690800.0,5336054.625],[690800.0,5336054.5],[690799.875,5336054.5],[690799.875,5336054.375],[690799.875,5336054.25],[690799.75,5336054.25],[690799.75,5336054.125],[690799.75,5336054.0],[690799.75,5336053.875],[690799.625,5336053.875],[690799.625,5336053.75],[690799.625,5336053.625],[690799.625,5336053.5],[690799.5,5336053.5],[690799.5,5336053.375],[690799.5,5336053.25],[690799.375,5336053.25],[690799.375,5336053.125],[690799.375,5336053.0],[690799.375,5336052.875],[690799.25,5336052.875],[690799.25,5336052.75],[690799.25,5336052.625],[690799.125,5336052.625],[690799.125,5336052.5],[690799.125,5336052.375],[690799.125,5336052.25],[690799.0,5336052.25],[690799.0,5336052.125],[690799.0,5336052.0],[690799.0,5336051.875],[690798.875,5336051.875],[690798.875,5336051.75],[690798.875,5336051.625],[690798.75,5336051.625],[690798.75,5336051.5],[690798.75,5336051.375],[690798.75,5336051.25],[690798.625,5336051.25],[690798.625,5336051.125],[690798.625,5336051.0],[690798.625,5336050.875],[690798.5,5336050.875],[690798.5,5336050.75],[690798.5,5336050.625],[690798.375,5336050.625],[690798.375,5336050.5],[690798.375,5336050.375],[690798.375,5336050.25],[690798.25,5336050.25],[690798.25,5336050.125],[690798.25,5336050.0],[690798.25,5336049.875],[690798.125,5336049.875],[690798.125,5336049.75],[690798.125,5336049.625],[690798.0,5336049.625],[690798.0,5336049.5],[690798.0,5336049.375],[690798.0,5336049.25],[690797.875,5336049.25],[690797.875,5336049.125],[690797.875,5336049.0],[690797.75,5336049.0],[690797.75,5336048.875],[690797.75,5336048.75],[690797.75,5336048.625],[690797.625,5336048.625],[690797.625,5336048.5],[690797.625,5336048.375],[690797.5,5336048.375],[690797.375,5336048.375],[690797.25,5336048.375],[690797.25,5336048.5],[690797.125,5336048.5],[690797.0,5336048.5],[690796.875,5336048.5],[690796.875,5336048.625],[690796.75,5336048.625],[690796.625,5336048.625],[690796.625,5336048.75],[690796.5,5336048.75],[690796.375,5336048.75],[690796.25,5336048.75],[690796.25,5336048.875],[690796.125,5336048.875],[690796.0,5336048.875],[690796.0,5336049.0],[690795.875,5336049.0],[690795.75,5336049.0],[690795.625,5336049.0],[690795.625,5336049.125],[690795.5,5336049.125],[690795.375,5336049.125],[690795.375,5336049.25],[690795.25,5336049.25],[690795.125,5336049.25],[690795.0,5336049.25],[690795.0,5336049.375],[690794.875,5336049.375],[690794.75,5336049.375],[690794.75,5336049.5],[690794.625,5336049.5],[690794.5,5336049.5],[690794.375,5336049.5],[690794.375,5336049.625],[690794.25,5336049.625],[690794.125,5336049.625],[690794.125,5336049.75],[690794.0,5336049.75],[690793.875,5336049.75],[690793.875,5336049.875],[690793.75,5336049.875],[690793.625,5336049.875],[690793.5,5336049.875],[690793.5,5336050.0],[690793.375,5336050.0],[690793.25,5336050.0],[690793.25,5336050.125],[690793.125,5336050.125],[690793.0,5336050.125],[690792.875,5336050.125],[690792.875,5336050.25],[690792.75,5336050.25],[690792.625,5336050.25],[690792.625,5336050.375],[690792.5,5336050.375],[690792.375,5336050.375],[690792.25,5336050.375],[690792.25,5336050.5],[690792.125,5336050.5],[690792.0,5336050.5],[690792.0,5336050.625],[690791.875,5336050.625],[690791.75,5336050.625],[690791.625,5336050.625],[690791.625,5336050.75],[690791.5,5336050.75],[690791.375,5336050.75],[690791.375,5336050.875],[690791.25,5336050.875],[690791.125,5336050.875],[690791.0,5336050.875],[690791.0,5336051.0],[690790.875,5336051.0],[690790.75,5336051.0],[690790.75,5336051.125]]]}},{"type":"Feature","properties":{"building_id":"DEBY_LOD2_8568391","source":"flat_seed_point_occupied_cell_union","grid_m":0.125,"point_count":3715},"geometry":{"type":"Polygon","coordinates":[[[690786.875,5336024.625],[690786.875,5336024.75],[690786.75,5336024.75],[690786.625,5336024.75],[690786.5,5336024.75],[690786.5,5336024.875],[690786.375,5336024.875],[690786.375,5336025.0],[690786.375,5336025.125],[690786.375,5336025.25],[690786.5,5336025.25],[690786.5,5336025.375],[690786.5,5336025.5],[690786.5,5336025.625],[690786.625,5336025.625],[690786.625,5336025.75],[690786.625,5336025.875],[690786.75,5336025.875],[690786.75,5336026.0],[690786.75,5336026.125],[690786.75,5336026.25],[690786.875,5336026.25],[690786.875,5336026.375],[690786.875,5336026.5],[690786.875,5336026.625],[690787.0,5336026.625],[690787.0,5336026.75],[690787.0,5336026.875],[690787.125,5336026.875],[690787.125,5336027.0],[690787.125,5336027.125],[690787.125,5336027.25],[690787.25,5336027.25],[690787.25,5336027.375],[690787.25,5336027.5],[690787.375,5336027.5],[690787.375,5336027.625],[690787.375,5336027.75],[690787.375,5336027.875],[690787.5,5336027.875],[690787.5,5336028.0],[690787.5,5336028.125],[690787.625,5336028.125],[690787.625,5336028.25],[690787.625,5336028.375],[690787.625,5336028.5],[690787.75,5336028.5],[690787.75,5336028.625],[690787.75,5336028.75],[690787.875,5336028.75],[690787.875,5336028.875],[690787.875,5336029.0],[690787.875,5336029.125],[690788.0,5336029.125],[690788.0,5336029.25],[690788.0,5336029.375],[690788.125,5336029.375],[690788.125,5336029.5],[690788.125,5336029.625],[690788.125,5336029.75],[690788.25,5336029.75],[690788.25,5336029.875],[690788.25,5336030.0],[690788.25,5336030.125],[690788.375,5336030.125],[690788.5,5336030.125],[690788.625,5336030.125],[690788.625,5336030.0],[690788.75,5336030.0],[690788.875,5336030.0],[690788.875,5336029.875],[690789.0,5336029.875],[690789.125,5336029.875],[690789.25,5336029.875],[690789.25,5336029.75],[690789.375,5336029.75],[690789.5,5336029.75],[690789.625,5336029.75],[690789.625,5336029.625],[690789.75,5336029.625],[690789.875,5336029.625],[690790.0,5336029.625],[690790.0,5336029.5],[690790.125,5336029.5],[690790.25,5336029.5],[690790.25,5336029.375],[690790.375,5336029.375],[690790.5,5336029.375],[690790.625,5336029.375],[690790.625,5336029.25],[690790.75,5336029.25],[690790.875,5336029.25],[690791.0,5336029.25],[690791.0,5336029.125],[690791.125,5336029.125],[690791.25,5336029.125],[690791.25,5336029.0],[690791.375,5336029.0],[690791.5,5336029.0],[690791.625,5336029.0],[690791.625,5336028.875],[690791.75,5336028.875],[690791.875,5336028.875],[690792.0,5336028.875],[690792.0,5336028.75],[690792.125,5336028.75],[690792.25,5336028.75],[690792.375,5336028.75],[690792.375,5336028.625],[690792.5,5336028.625],[690792.625,5336028.625],[690792.625,5336028.5],[690792.75,5336028.5],[690792.875,5336028.5],[690793.0,5336028.5],[690793.0,5336028.375],[690793.125,5336028.375],[690793.25,5336028.375],[690793.375,5336028.375],[690793.375,5336028.25],[690793.5,5336028.25],[690793.625,5336028.25],[690793.625,5336028.125],[690793.75,5336028.125],[690793.875,5336028.125],[690794.0,5336028.125],[690794.0,5336028.0],[690794.125,5336028.0],[690794.25,5336028.0],[690794.375,5336028.0],[690794.375,5336027.875],[690794.5,5336027.875],[690794.625,5336027.875],[690794.625,5336027.75],[690794.75,5336027.75],[690794.875,5336027.75],[690795.0,5336027.75],[690795.0,5336027.625],[690795.125,5336027.625],[690795.25,5336027.625],[690795.375,5336027.625],[690795.375,5336027.5],[690795.5,5336027.5],[690795.625,5336027.5],[690795.75,5336027.5],[690795.75,5336027.375],[690795.875,5336027.375],[690796.0,5336027.375],[690796.0,5336027.25],[690796.125,5336027.25],[690796.25,5336027.25],[690796.375,5336027.25],[690796.375,5336027.125],[690796.5,5336027.125],[690796.625,5336027.125],[690796.75,5336027.125],[690796.75,5336027.0],[690796.875,5336027.0],[690797.0,5336027.0],[690797.0,5336026.875],[690797.125,5336026.875],[690797.25,5336026.875],[690797.375,5336026.875],[690797.375,5336026.75],[690797.5,5336026.75],[690797.625,5336026.75],[690797.75,5336026.75],[690797.75,5336026.625],[690797.875,5336026.625],[690797.875,5336026.5],[690797.875,5336026.375],[690797.875,5336026.25],[690797.75,5336026.25],[690797.75,5336026.125],[690797.75,5336026.0],[690797.75,5336025.875],[690797.625,5336025.875],[690797.625,5336025.75],[690797.625,5336025.625],[690797.625,5336025.5],[690797.5,5336025.5],[690797.5,5336025.375],[690797.5,5336025.25],[690797.375,5336025.25],[690797.375,5336025.125],[690797.375,5336025.0],[690797.375,5336024.875],[690797.25,5336024.875],[690797.25,5336024.75],[690797.25,5336024.625],[690797.25,5336024.5],[690797.125,5336024.5],[690797.125,5336024.375],[690797.125,5336024.25],[690797.0,5336024.25],[690797.0,5336024.125],[690797.0,5336024.0],[690797.0,5336023.875],[690796.875,5336023.875],[690796.875,5336023.75],[690796.875,5336023.625],[690796.875,5336023.5],[690796.75,5336023.5],[690796.75,5336023.375],[690796.75,5336023.25],[690796.75,5336023.125],[690796.625,5336023.125],[690796.625,5336023.0],[690796.625,5336022.875],[690796.5,5336022.875],[690796.5,5336022.75],[690796.5,5336022.625],[690796.5,5336022.5],[690796.375,5336022.5],[690796.375,5336022.375],[690796.375,5336022.25],[690796.375,5336022.125],[690796.25,5336022.125],[690796.25,5336022.0],[690796.25,5336021.875],[690796.125,5336021.875],[690796.125,5336021.75],[690796.125,5336021.625],[690796.125,5336021.5],[690796.0,5336021.5],[690796.0,5336021.375],[690795.875,5336021.375],[690795.75,5336021.375],[690795.625,5336021.375],[690795.625,5336021.5],[690795.5,5336021.5],[690795.375,5336021.5],[690795.375,5336021.625],[690795.25,5336021.625],[690795.125,5336021.625],[690795.0,5336021.625],[690795.0,5336021.75],[690794.875,5336021.75],[690794.75,5336021.75],[690794.625,5336021.75],[690794.625,5336021.875],[690794.5,5336021.875],[690794.375,5336021.875],[690794.375,5336022.0],[690794.25,5336022.0],[690794.125,5336022.0],[690794.0,5336022.0],[690794.0,5336022.125],[690793.875,5336022.125],[690793.75,5336022.125],[690793.625,5336022.125],[690793.625,5336022.25],[690793.5,5336022.25],[690793.375,5336022.25],[690793.25,5336022.25],[690793.25,5336022.375],[690793.125,5336022.375],[690793.0,5336022.375],[690793.0,5336022.5],[690792.875,5336022.5],[690792.75,5336022.5],[690792.625,5336022.5],[690792.625,5336022.625],[690792.5,5336022.625],[690792.375,5336022.625],[690792.25,5336022.625],[690792.25,5336022.75],[690792.125,5336022.75],[690792.0,5336022.75],[690792.0,5336022.875],[690791.875,5336022.875],[690791.75,5336022.875],[690791.625,5336022.875],[690791.625,5336023.0],[690791.5,5336023.0],[690791.375,5336023.0],[690791.25,5336023.0],[690791.25,5336023.125],[690791.125,5336023.125],[690791.0,5336023.125],[690790.875,5336023.125],[690790.875,5336023.25],[690790.75,5336023.25],[690790.625,5336023.25],[690790.625,5336023.375],[690790.5,5336023.375],[690790.375,5336023.375],[690790.25,5336023.375],[690790.25,5336023.5],[690790.125,5336023.5],[690790.0,5336023.5],[690789.875,5336023.5],[690789.875,5336023.625],[690789.75,5336023.625],[690789.625,5336023.625],[690789.625,5336023.75],[690789.5,5336023.75],[690789.375,5336023.75],[690789.25,5336023.75],[690789.25,5336023.875],[690789.125,5336023.875],[690789.0,5336023.875],[690788.875,5336023.875],[690788.875,5336024.0],[690788.75,5336024.0],[690788.625,5336024.0],[690788.5,5336024.0],[690788.5,5336024.125],[690788.375,5336024.125],[690788.25,5336024.125],[690788.25,5336024.25],[690788.125,5336024.25],[690788.0,5336024.25],[690787.875,5336024.25],[690787.875,5336024.375],[690787.75,5336024.375],[690787.625,5336024.375],[690787.5,5336024.375],[690787.5,5336024.5],[690787.375,5336024.5],[690787.25,5336024.5],[690787.25,5336024.625],[690787.125,5336024.625],[690787.0,5336024.625],[690786.875,5336024.625]]]}},{"type":"Feature","properties":{"building_id":"DEBY_LOD2_8568392","source":"flat_seed_point_occupied_cell_union","grid_m":0.125,"point_count":422},"geometry":{"type":"Polygon","coordinates":[[[690792.875,5336020.0],[690792.75,5336020.0],[690792.75,5336020.125],[690792.75,5336020.25],[690792.875,5336020.25],[690792.875,5336020.375],[690792.875,5336020.5],[690792.875,5336020.625],[690793.0,5336020.625],[690793.0,5336020.75],[690793.0,5336020.875],[690793.125,5336020.875],[690793.125,5336021.0],[690793.125,5336021.125],[690793.125,5336021.25],[690793.25,5336021.25],[690793.25,5336021.375],[690793.25,5336021.5],[690793.25,5336021.625],[690793.375,5336021.625],[690793.375,5336021.75],[690793.375,5336021.875],[690793.5,5336021.875],[690793.5,5336022.0],[690793.5,5336022.125],[690793.5,5336022.25],[690793.625,5336022.25],[690793.625,5336022.375],[690793.75,5336022.375],[690793.75,5336022.25],[690793.875,5336022.25],[690794.0,5336022.25],[690794.125,5336022.25],[690794.125,5336022.125],[690794.25,5336022.125],[690794.375,5336022.125],[690794.375,5336022.0],[690794.5,5336022.0],[690794.625,5336022.0],[690794.75,5336022.0],[690794.75,5336021.875],[690794.875,5336021.875],[690795.0,5336021.875],[690795.125,5336021.875],[690795.125,5336021.75],[690795.25,5336021.75],[690795.375,5336021.75],[690795.5,5336021.75],[690795.5,5336021.625],[690795.625,5336021.625],[690795.75,5336021.625],[690795.75,5336021.5],[690795.875,5336021.5],[690796.0,5336021.5],[690796.0,5336021.375],[690796.0,5336021.25],[690796.0,5336021.125],[690795.875,5336021.125],[690795.875,5336021.0],[690795.875,5336020.875],[690795.875,5336020.75],[690795.75,5336020.75],[690795.75,5336020.625],[690795.75,5336020.5],[690795.625,5336020.5],[690795.625,5336020.375],[690795.625,5336020.25],[690795.625,5336020.125],[690795.5,5336020.125],[690795.5,5336020.0],[690795.5,5336019.875],[690795.5,5336019.75],[690795.375,5336019.75],[690795.375,5336019.625],[690795.375,5336019.5],[690795.25,5336019.5],[690795.25,5336019.375],[690795.25,5336019.25],[690795.25,5336019.125],[690795.125,5336019.125],[690795.0,5336019.125],[690795.0,5336019.25],[690794.875,5336019.25],[690794.75,5336019.25],[690794.625,5336019.25],[690794.625,5336019.375],[690794.5,5336019.375],[690794.375,5336019.375],[690794.25,5336019.375],[690794.25,5336019.5],[690794.125,5336019.5],[690794.0,5336019.5],[690793.875,5336019.5],[690793.875,5336019.625],[690793.75,5336019.625],[690793.625,5336019.625],[690793.625,5336019.75],[690793.5,5336019.75],[690793.375,5336019.75],[690793.25,5336019.75],[690793.25,5336019.875],[690793.125,5336019.875],[690793.0,5336019.875],[690792.875,5336019.875],[690792.875,5336020.0]]]}}]}
