{
"type": "FeatureCollection",
"name": "footprint",
"crs": { "type": "name", "properties": { "name": "urn:ogc:def:crs:EPSG::25832" } },
"features": [
{"type":"Feature","properties":{"building_id":"DEBY_LOD2_42364609","source_file":"690_5336.gml","part_id":1,"area_m2":16.445,"min_x":690860.387,"min_y":5336180.751,"max_x":690866.126,"max_y":5336185.691},"geometry":{"type":"Polygon","coordinates":[[[690864.841000000014901,5336180.751000000163913],[690860.386999999987893,5336182.53899999987334],[690861.65500000002794,5336185.690999999642372],[690866.126000000047497,5336183.963999999687076],[690864.841000000014901,5336180.751000000163913]]]}}
]
}
