{"type":"FeatureCollection","name":"flat_seed_roofprints_g0250","crs":{"type":"name","properties":{"name":"urn:ogc:def:crs:EPSG::25832"}},"features":[{"type":"Feature","properties":{"building_id":"DEBY_LOD2_4907199","source":"flat_seed_point_occupied_cell_union","grid_m":0.25,"point_count":1681},"geometry":{"type":"Polygon","coordinates":[[[690791.0,5336050.75],[690791.0,5336051.0],[690790.75,5336051.0],[690790.5,5336051.0],[690790.25,5336051.0],[690790.25,5336051.25],[690790.25,5336051.5],[690790.5,5336051.5],[690790.5,5336051.75],[690790.5,5336052.0],[690790.5,5336052.25],[690790.75,5336052.25],[690790.75,5336052.5],[690790.75,5336052.75],[690790.75,5336053.0],[690791.0,5336053.0],[690791.0,5336053.25],[690791.0,5336053.5],[690791.25,5336053.5],[690791.25,5336053.75],[690791.25,5336054.0],[690791.25,5336054.25],[690791.5,5336054.25],[690791.5,5336054.5],[690791.5,5336054.75],[690791.75,5336054.75],[690791.75,5336055.0],[690791.75,5336055.25],[690791.75,5336055.5],[690792.0,5336055.5],[690792.0,5336055.75],[690792.0,5336056.0],[690792.0,5336056.25],[690792.25,5336056.25],[690792.25,5336056.5],[690792.25,5336056.75],[690792.5,5336056.75],[690792.5,5336057.0],[690792.5,5336057.25],[690792.5,5336057.5],[690792.75,5336057.5],[690792.75,5336057.75],[690792.75,5336058.0],[690792.75,5336058.25],[690793.0,5336058.25],[690793.0,5336058.5],[690793.0,5336058.75],[690793.25,5336058.75],[690793.25,5336059.0],[690793.25,5336059.25],[690793.25,5336059.5],[690793.5,5336059.5],[690793.5,5336059.75],[690793.5,5336060.0],[690793.5,5336060.25],[690793.75,5336060.25],[690793.75,5336060.5],[690793.75,5336060.75],[690794.0,5336060.75],[690794.0,5336061.0],[690794.0,5336061.25],[690794.0,5336061.5],[690794.25,5336061.5],[690794.25,5336061.75],[690794.25,5336062.0],[690794.5,5336062.0],[690794.5,5336062.25],[690794.5,5336062.5],[690794.5,5336062.75],[690794.75,5336062.75],[690794.75,5336063.0],[690794.75,5336063.25],[690795.0,5336063.25],[690795.25,5336063.25],[690795.5,5336063.25],[690795.75,5336063.25],[690795.75,5336063.0],[690796.0,5336063.0],[690796.25,5336063.0],[690796.5,5336063.0],[690796.5,5336062.75],[690796.75,5336062.75],[690797.0,5336062.75],[690797.0,5336062.5],[690797.25,5336062.5],[690797.5,5336062.5],[690797.75,5336062.5],[690797.75,5336062.25],[690798.0,5336062.25],[690798.25,5336062.25],[690798.25,5336062.0],[690798.5,5336062.0],[690798.75,5336062.0],[690799.0,5336062.0],[690799.0,5336061.75],[690799.25,5336061.75],[690799.5,5336061.75],[690799.5,5336061.5],[690799.75,5336061.5],[690800.0,5336061.5],[690800.25,5336061.5],[690800.25,5336061.25],[690800.5,5336061.25],[690800.75,5336061.25],[690801.0,5336061.25],[690801.0,5336061.0],[690801.25,5336061.0],[690801.5,5336061.0],[690801.5,5336060.75],[690801.75,5336060.75],[690802.0,5336060.75],[690802.25,5336060.75],[690802.25,5336060.5],[690802.25,5336060.25],[690802.25,5336060.0],[690802.0,5336060.0],[690802.0,5336059.75],[690802.0,5336059.5],[690801.75,5336059.5],[690801.75,5336059.25],[690801.75,5336059.0],[690801.75,5336058.75],[690801.5,5336058.75],[690801.5,5336058.5],[690801.5,5336058.25],[690801.5,5336058.0],[690801.25,5336058.0],[690801.25,5336057.75],[690801.25,5336057.5],[690801.0,5336057.5],[690801.0,5336057.25],[690801.0,5336057.0],[690801.0,5336056.75],[690800.75,5336056.75],[690800.75,5336056.5],[690800.75,5336056.25],[690800.5,5336056.25],[690800.5,5336056.0],[690800.5,5336055.75],[690800.5,5336055.5],[690800.25,5336055.5],[690800.25,5336055.25],[690800.25,5336055.0],[690800.25,5336054.75],[690800.0,5336054.75],[690800.0,5336054.5],[690800.0,5336054.25],[690799.75,5336054.25],[690799.75,5336054.0],[690799.75,5336053.75],[690799.75,5336053.5],[690799.5,5336053.5],[690799.5,5336053.25],[690799.5,5336053.0],[690799.5,5336052.75],[690799.25,5336052.75],[690799.25,5336052.5],[690799.25,5336052.25],[690799.0,5336052.25],[690799.0,5336052.0],[690799.0,5336051.75],[690799.0,5336051.5],[690798.75,5336051.5],[690798.75,5336051.25],[690798.75,5336051.0],[690798.75,5336050.75],[690798.5,5336050.75],[690798.5,5336050.5],[690798.5,5336050.25],[690798.25,5336050.25],[690798.25,5336050.0],[690798.25,5336049.75],[690798.25,5336049.5],[690798.0,5336049.5],[690798.0,5336049.25],[690798.0,5336049.0],[690797.75,5336049.0],[690797.75,5336048.75],[690797.75,5336048.5],[690797.75,5336048.25],[690797.5,5336048.25],[690797.25,5336048.25],[690797.25,5336048.5],[690797.0,5336048.5],[690796.75,5336048.5],[690796.5,5336048.5],[690796.5,5336048.75],[690796.25,5336048.75],[690796.0,5336048.75],[690796.0,5336049.0],[690795.75,5336049.0],[690795.5,5336049.0],[690795.25,5336049.0],[690795.25,5336049.25],[690795.0,5336049.25],[690794.75,5336049.25],[690794.75,5336049.5],[690794.5,5336049.5],[690794.25,5336049.5],[690794.0,5336049.5],[690794.0,5336049.75],[690793.75,5336049.75],[690793.5,5336049.75],[690793.5,5336050.0],[690793.25,5336050.0],[690793.0,5336050.0],[690792.75,5336050.0],[690792.75,5336050.25],[690792.5,5336050.25],[690792.25,5336050.25],[690792.25,5336050.5],[690792.0,5336050.5],[690791.75,5336050.5],[690791.5,5336050.5],[690791.5,5336050.75],[690791.25,5336050.75],[690791.0,5336050.75]]]}},{"type":"Feature","properties":{"building_id":"DEBY_LOD2_8568391","source":"flat_seed_point_occupied_cell_union","grid_m":0.25,"point_count":971},"geometry":{"type":"Polygon","coordinates":[[[690786.75,5336024.5],[690786.75,5336024.75],[690786.5,5336024.75],[690786.25,5336024.75],[690786.25,5336025.0],[690786.25,5336025.25],[690786.5,5336025.25],[690786.5,5336025.5],[690786.5,5336025.75],[690786.5,5336026.0],[690786.75,5336026.0],[690786.75,5336026.25],[690786.75,5336026.5],[690786.75,5336026.75],[690787.0,5336026.75],[690787.0,5336027.0],[690787.0,5336027.25],[690787.25,5336027.25],[690787.25,5336027.5],[690787.25,5336027.75],[690787.25,5336028.0],[690787.5,5336028.0],[690787.5,5336028.25],[690787.5,5336028.5],[690787.75,5336028.5],[690787.75,5336028.75],[690787.75,5336029.0],[690787.75,5336029.25],[690788.0,5336029.25],[690788.0,5336029.5],[690788.0,5336029.75],[690788.25,5336029.75],[690788.25,5336030.0],[690788.25,5336030.25],[690788.5,5336030.25],[690788.75,5336030.25],[690788.75,5336030.0],[690789.0,5336030.0],[690789.25,5336030.0],[690789.25,5336029.75],[690789.5,5336029.75],[690789.75,5336029.75],[690790.0,5336029.75],[690790.0,5336029.5],[690790.25,5336029.5],[690790.5,5336029.5],[690790.75,5336029.5],[690790.75,5336029.25],[690791.0,5336029.25],[690791.25,5336029.25],[690791.25,5336029.0],[690791.5,5336029.0],[690791.75,5336029.0],[690792.0,5336029.0],[690792.0,5336028.75],[690792.25,5336028.75],[690792.5,5336028.75],[690792.75,5336028.75],[690792.75,5336028.5],[690793.0,5336028.5],[690793.25,5336028.5],[690793.5,5336028.5],[690793.5,5336028.25],[690793.75,5336028.25],[690794.0,5336028.25],[690794.0,5336028.0],[690794.25,5336028.0],[690794.5,5336028.0],[690794.75,5336028.0],[690794.75,5336027.75],[690795.0,5336027.75],[690795.25,5336027.75],[690795.5,5336027.75],[690795.5,5336027.5],[690795.75,5336027.5],[690796.0,5336027.5],[690796.0,5336027.25],[690796.25,5336027.25],[690796.5,5336027.25],[690796.75,5336027.25],[690796.75,5336027.0],[690797.0,5336027.0],[690797.25,5336027.0],[690797.5,5336027.0],[690797.5,5336026.75],[690797.75,5336026.75],[690798.0,5336026.75],[690798.0,5336026.5],[690798.0,5336026.25],[690797.75,5336026.25],[690797.75,5336026.0],[690797.75,5336025.75],[690797.75,5336025.5],[690797.5,5336025.5],[690797.5,5336025.25],[690797.5,5336025.0],[690797.5,5336024.75],[690797.25,5336024.75],[690797.25,5336024.5],[690797.25,5336024.25],[690797.0,5336024.25],[690797.0,5336024.0],[690797.0,5336023.75],[690797.0,5336023.5],[690796.75,5336023.5],[690796.75,5336023.25],[690796.75,5336023.0],[690796.75,5336022.75],[690796.5,5336022.75],[690796.5,5336022.5],[690796.5,5336022.25],[690796.5,5336022.0],[690796.25,5336022.0],[690796.25,5336021.75],[690796.25,5336021.5],[690796.0,5336021.5],[690796.0,5336021.25],[690795.75,5336021.25],[690795.5,5336021.25],[690795.5,5336021.5],[690795.25,5336021.5],[690795.0,5336021.5],[690795.0,5336021.75],[690794.75,5336021.75],[690794.5,5336021.75],[690794.25,5336021.75],[690794.25,5336022.0],[690794.0,5336022.0],[690793.75,5336022.0],[690793.5,5336022.0],[690793.5,5336022.25],[690793.25,5336022.25],[690793.0,5336022.25],[690793.0,5336022.5],[690792.75,5336022.5],[690792.5,5336022.5],[690792.25,5336022.5],[690792.25,5336022.75],[690792.0,5336022.75],[690791.75,5336022.75],[690791.5,5336022.75],[690791.5,5336023.0],[690791.25,5336023.0],[690791.0,5336023.0],[690790.75,5336023.0],[690790.75,5336023.25],[690790.5,5336023.25],[690790.25,5336023.25],[690790.25,5336023.5],[690790.0,5336023.5],[690789.75,5336023.5],[690789.5,5336023.5],[690789.5,5336023.75],[690789.25,5336023.75],[690789.0,5336023.75],[690788.75,5336023.75],[690788.75,5336024.0],[690788.5,5336024.0],[690788.25,5336024.0],[690788.25,5336024.25],[690788.0,5336024.25],[690787.75,5336024.25],[690787.5,5336024.25],[690787.5,5336024.5],[690787.25,5336024.5],[690787.0,5336024.5],[690786.75,5336024.5]]]}},{"type":"Feature","properties":{"building_id":"DEBY_LOD2_8568392","source":"flat_seed_point_occupied_cell_union","grid_m":0.25,"point_count":118},"geometry":{"type":"Polygon","coordinates":[[[690793.0,5336020.75],[690793.0,5336021.0],[690793.0,5336021.25],[690793.25,5336021.25],[690793.25,5336021.5],[690793.25,5336021.75],[690793.25,5336022.0],[690793.5,5336022.0],[690793.5,5336022.25],[690793.5,5336022.5],[690793.75,5336022.5],[690793.75,5336022.25],[690794.0,5336022.25],[690794.25,5336022.25],[690794.5,5336022.25],[690794.5,5336022.0],[690794.75,5336022.0],[690795.0,5336022.0],[690795.25,5336022.0],[690795.25,5336021.75],[690795.5,5336021.75],[690795.75,5336021.75],[690795.75,5336021.5],[690796.0,5336021.5],[690796.0,5336021.25],[690796.0,5336021.0],[690796.0,5336020.75],[690795.75,5336020.75],[690795.75,5336020.5],[690795.75,5336020.25],[690795.75,5336020.0],[690795.5,5336020.0],[690795.5,5336019.75],[690795.5,5336019.5],[690795.25,5336019.5],[690795.25,5336019.25],[690795.25,5336019.0],[690795.0,5336019.0],[690795.0,5336019.25],[690794.75,5336019.25],[690794.5,5336019.25],[690794.25,5336019.25],[690794.25,5336019.5],[690794.0,5336019.5],[690793.75,5336019.5],[690793.5,5336019.5],[690793.5,5336019.75],[690793.25,5336019.75],[690793.0,5336019.75],[690792.75,5336019.75],[690792.75,5336020.0],[690792.75,5336020.25],[690792.75,5336020.5],[690792.75,5336020.75],[690793.0,5336020.75]]]}}]}
