{"type":"FeatureCollection","name":"C001_18","crs":{"type":"name","properties":{"name":"urn:ogc:def:crs:EPSG::25832"}},"features":[{"type":"Feature","properties":{"building_id":"DEBY_LOD2_108247349","source_file":"690_5336.gml","part_id":1,"area_m2":101.102,"min_x":690778.39,"min_y":5336051.52,"max_x":690793.36,"max_y":5336063.54},"geometry":{"type":"Polygon","coordinates":[[[690778.39,5336056.62],[690779.52,5336059.48],[690781.21,5336063.54],[690782.1,5336063.21],[690787.71,5336061.1],[690793.36,5336058.99],[690790.52,5336051.52],[690778.39,5336056.62]]]}},{"type":"Feature","properties":{"building_id":"DEBY_LOD2_108247350","source_file":"690_5336.gml","part_id":1,"area_m2":12.137,"min_x":690793.4,"min_y":5336069.08,"max_x":690798.34,"max_y":5336073.25},"geometry":{"type":"Polygon","coordinates":[[[690793.4,5336070.51],[690794.12,5336072.43],[690795.06,5336072.08],[690795.5,5336073.25],[690798.34,5336072.19],[690797.61,5336070.19],[690797.19,5336069.08],[690793.4,5336070.51]]]}},{"type":"Feature","properties":{"building_id":"DEBY_LOD2_108247351","source_file":"690_5336.gml","part_id":1,"area_m2":65.279,"min_x":690787.71,"min_y":5336058.99,"max_x":690797.19,"max_y":5336071.22},"geometry":{"type":"Polygon","coordinates":[[[690787.71,5336061.1],[690791.53,5336071.22],[690793.4,5336070.51],[690797.19,5336069.08],[690794.98,5336063.25],[690793.36,5336058.99],[690787.71,5336061.1]]]}},{"type":"Feature","properties":{"building_id":"DEBY_LOD2_4907184","source_file":"690_5336.gml","part_id":1,"area_m2":337.875,"min_x":690836.639,"min_y":5336083.195,"max_x":690859.713,"max_y":5336111.925},"geometry":{"type":"Polygon","coordinates":[[[690859.532,5336105.9],[690858.678,5336106.237],[690855.391,5336097.911],[690855.605,5336097.829],[690853.902,5336093.509],[690854.123,5336093.488],[690852.237,5336088.704],[690850.645,5336084.664],[690850.843,5336084.59],[690850.96,5336084.547],[690850.423,5336083.195],[690850.284,5336083.236],[690850.214,5336083.257],[690849.61,5336083.439],[690848.155,5336083.877],[690848.179,5336084.035],[690848.187,5336084.088],[690845.395,5336085.37],[690845.336,5336085.22],[690845.295,5336085.116],[690844.107,5336085.569],[690841.415,5336086.596],[690841.486,5336086.823],[690841.513,5336086.91],[690838.29,5336088.153],[690837.885,5336088.31],[690837.748,5336087.994],[690836.639,5336088.451],[690836.748,5336088.726],[690838.844,5336094.283],[690840.839,5336099.575],[690842.296,5336099.007],[690842.495,5336098.929],[690842.683,5336099.352],[690842.768,5336099.545],[690848.261,5336111.925],[690853.868,5336109.196],[690859.511,5336106.449],[690859.713,5336106.377],[690859.532,5336105.9]]]}},{"type":"Feature","properties":{"building_id":"DEBY_LOD2_4907185","source_file":"690_5336.gml","part_id":1,"area_m2":160.98,"min_x":690823.749,"min_y":5336088.726,"max_x":690840.839,"max_y":5336104.576},"geometry":{"type":"Polygon","coordinates":[[[690838.794,5336094.15],[690836.748,5336088.726],[690826.523,5336092.691],[690823.749,5336093.763],[690825.786,5336099.017],[690825.842,5336099.169],[690825.895,5336099.312],[690827.932,5336104.576],[690830.707,5336103.493],[690840.839,5336099.575],[690838.794,5336094.15]]]}},{"type":"Feature","properties":{"building_id":"DEBY_LOD2_4907186","source_file":"690_5336.gml","part_id":1,"area_m2":167.836,"min_x":690797.374,"min_y":5336099.254,"max_x":690814.266,"max_y":5336115.932},"geometry":{"type":"Polygon","coordinates":[[[690811.903,5336105.169],[690809.546,5336099.254],[690809.363,5336099.317],[690806.498,5336100.436],[690800.961,5336102.602],[690797.679,5336103.875],[690797.374,5336103.993],[690799.661,5336109.969],[690801.941,5336115.932],[690813.992,5336111.198],[690814.266,5336111.098],[690811.903,5336105.169]]]}},{"type":"Feature","properties":{"building_id":"DEBY_LOD2_4907188","source_file":"690_5336.gml","part_id":1,"area_m2":165.881,"min_x":690784.89,"min_y":5336103.99,"max_x":690801.8,"max_y":5336120.41},"geometry":{"type":"Polygon","coordinates":[[[690784.89,5336108.83],[690789.17,5336120.41],[690801.8,5336115.59],[690797.37,5336103.99],[690794.47,5336105.13],[690794.5,5336105.2],[690788.02,5336107.71],[690787.97,5336107.65],[690784.89,5336108.83]]]}},{"type":"Feature","properties":{"building_id":"DEBY_LOD2_4907194","source_file":"690_5336.gml","part_id":1,"area_m2":212.727,"min_x":690774.55,"min_y":5336076.45,"max_x":690792.81,"max_y":5336096.54},"geometry":{"type":"Polygon","coordinates":[[[690774.77,5336081.38],[690781.13,5336096.54],[690790.26,5336092.97],[690792.3,5336092.2],[690792.81,5336091.97],[690788.31,5336080.93],[690786.44,5336076.45],[690786.25,5336076.52],[690783.41,5336077.63],[690781.83,5336078.23],[690774.55,5336080.87],[690774.77,5336081.38]]]}},{"type":"Feature","properties":{"building_id":"DEBY_LOD2_4907195","source_file":"690_5336.gml","part_id":1,"area_m2":177.84,"min_x":690786.44,"min_y":5336074.7,"max_x":690805.03,"max_y":5336091.97},"geometry":{"type":"Polygon","coordinates":[[[690799.9,5336074.7],[690799.35,5336074.92],[690790.45,5336078.39],[690788.23,5336079.24],[690787.86,5336079.37],[690786.63,5336076.38],[690786.44,5336076.45],[690788.31,5336080.93],[690792.81,5336091.97],[690793.23,5336091.81],[690795.44,5336090.95],[690805.03,5336087.27],[690799.9,5336074.7]]]}},{"type":"Feature","properties":{"building_id":"DEBY_LOD2_4907198","source_file":"690_5336.gml","part_id":1,"area_m2":359.797,"min_x":690794.98,"min_y":5336060.48,"max_x":690824.86,"max_y":5336087.31},"geometry":{"type":"Polygon","coordinates":[[[690821.06,5336069.9],[690818.93,5336070.73],[690818.01,5336068.63],[690817.07,5336069.01],[690811.6,5336071.22],[690809.36,5336072.11],[690808.42,5336072.48],[690808.66,5336073.08],[690806.95,5336073.75],[690806.73,5336074.27],[690805.45,5336073.26],[690804.58,5336070.93],[690805.59,5336070.53],[690805.77,5336070.12],[690802.1,5336060.48],[690794.98,5336063.25],[690797.19,5336069.08],[690797.61,5336070.19],[690798.34,5336072.19],[690799.35,5336074.92],[690799.9,5336074.7],[690805.03,5336087.27],[690805.06,5336087.31],[690809.21,5336085.69],[690809.2,5336085.61],[690813.54,5336083.94],[690813.58,5336084.02],[690814.07,5336083.68],[690816.31,5336082.8],[690824.86,5336079.52],[690821.06,5336069.9]]]}},{"type":"Feature","properties":{"building_id":"DEBY_LOD2_4907199","source_file":"690_5336.gml","part_id":1,"area_m2":98.346,"min_x":690790.43,"min_y":5336048.4,"max_x":690802.1,"max_y":5336063.25},"geometry":{"type":"Polygon","coordinates":[[[690797.52,5336048.4],[690790.43,5336051.27],[690794.98,5336063.25],[690802.1,5336060.48],[690797.52,5336048.4]]]}},{"type":"Feature","properties":{"building_id":"DEBY_LOD2_4907202","source_file":"690_5336.gml","part_id":1,"area_m2":160.461,"min_x":690788.39,"min_y":5336023.06,"max_x":690811.1,"max_y":5336037.48},"geometry":{"type":"Polygon","coordinates":[[[690806.55,5336031.58],[690811.1,5336029.83],[690808.54,5336023.06],[690804.23,5336024.72],[690804.0,5336024.82],[690798.06,5336027.13],[690797.85,5336026.56],[690788.39,5336030.05],[690791.1,5336036.97],[690791.3,5336037.48],[690794.76,5336036.14],[690803.05,5336032.93],[690806.55,5336031.58]]]}},{"type":"Feature","properties":{"building_id":"DEBY_LOD2_4908168","source_file":"690_5336.gml","part_id":1,"area_m2":28.832,"min_x":690836.72,"min_y":5336108.87,"max_x":690843.77,"max_y":5336116.12},"geometry":{"type":"Polygon","coordinates":[[[690840.62,5336108.87],[690839.77,5336109.21],[690836.72,5336110.32],[690836.83,5336110.53],[690839.11,5336116.12],[690843.77,5336114.81],[690840.62,5336108.87]]]}},{"type":"Feature","properties":{"building_id":"DEBY_LOD2_4908178","source_file":"690_5336.gml","part_id":1,"area_m2":113.412,"min_x":690794.76,"min_y":5336032.93,"max_x":690807.65,"max_y":5336048.06},"geometry":{"type":"Polygon","coordinates":[[[690803.05,5336032.93],[690794.76,5336036.14],[690799.42,5336048.06],[690807.65,5336044.9],[690803.05,5336032.93]]]}},{"type":"Feature","properties":{"building_id":"DEBY_LOD2_4908179","source_file":"690_5336.gml","part_id":1,"area_m2":118.25,"min_x":690774.84,"min_y":5336044.13,"max_x":690795.84,"max_y":5336057.15},"geometry":{"type":"Polygon","coordinates":[[[690774.84,5336051.37],[690777.07,5336057.15],[690778.39,5336056.62],[690790.52,5336051.52],[690790.43,5336051.27],[690795.84,5336049.08],[690793.9,5336044.13],[690774.84,5336051.37]]]}},{"type":"Feature","properties":{"building_id":"DEBY_LOD2_60098","source_file":"690_5336.gml","part_id":1,"area_m2":195.93,"min_x":690809.546,"min_y":5336093.763,"max_x":690828.159,"max_y":5336111.098},"geometry":{"type":"Polygon","coordinates":[[[690827.932,5336104.576],[690826.08,5336099.79],[690825.895,5336099.312],[690825.786,5336099.017],[690823.749,5336093.763],[690823.707,5336093.78],[690809.546,5336099.254],[690811.938,5336105.256],[690814.266,5336111.098],[690819.661,5336109.007],[690819.968,5336109.794],[690820.116,5336110.176],[690824.09,5336108.639],[690823.941,5336108.257],[690823.444,5336106.973],[690828.159,5336105.155],[690827.932,5336104.576]]]}},{"type":"Feature","properties":{"building_id":"DEBY_LOD2_8568391","source_file":"690_5336.gml","part_id":1,"area_m2":55.535,"min_x":690786.39,"min_y":5336021.42,"max_x":690797.85,"max_y":5336030.05},"geometry":{"type":"Polygon","coordinates":[[[690795.95,5336021.42],[690786.39,5336024.95],[690788.39,5336030.05],[690797.85,5336026.56],[690795.95,5336021.42]]]}},{"type":"Feature","properties":{"building_id":"DEBY_LOD2_8568392","source_file":"690_5336.gml","part_id":1,"area_m2":5.797,"min_x":690792.831,"min_y":5336019.202,"max_x":690795.951,"max_y":5336022.267},"geometry":{"type":"Polygon","coordinates":[[[690795.951,5336021.416],[690795.136,5336019.202],[690792.831,5336020.053],[690793.645,5336022.267],[690795.951,5336021.416]]]}}]}
